[{"OBJECT_NAME":"STARLINK-11105 [DTC]","OBJECT_ID":"2024-091F","EPOCH":"2025-08-09T07:04:34.967424","MEAN_MOTION":15.69728706,"ECCENTRICITY":9.16e-5,"INCLINATION":53.1592,"RA_OF_ASC_NODE":173.3628,"ARG_OF_PERICENTER":70.9869,"MEAN_ANOMALY":289.1248,"EPHEMERIS_TYPE":0,"CLASSIFICATION_TYPE":"U","NORAD_CAT_ID":59758,"ELEMENT_SET_NO":999,"REV_AT_EPOCH":7215,"BSTAR":2.0251e-5,"MEAN_MOTION_DOT":1.867e-5,"MEAN_MOTION_DDOT":0},{"OBJECT_NAME":"STARLINK-11097 [DTC]","OBJECT_ID":"2024-091G","EPOCH":"2025-08-09T06:57:31.152960","MEAN_MOTION":15.69728167,"ECCENTRICITY":0.0001046,"INCLINATION":53.1588,"RA_OF_ASC_NODE":173.3122,"ARG_OF_PERICENTER":82.5686,"MEAN_ANOMALY":277.5451,"EPHEMERIS_TYPE":0,"CLASSIFICATION_TYPE":"U","NORAD_CAT_ID":59759,"ELEMENT_SET_NO":999,"REV_AT_EPOCH":7215,"BSTAR":1.5398e-5,"MEAN_MOTION_DOT":1.278e-5,"MEAN_MOTION_DDOT":0},{"OBJECT_NAME":"STARLINK-11098 [DTC]","OBJECT_ID":"2024-091H","EPOCH":"2025-08-09T03:47:05.418240","MEAN_MOTION":15.69726311,"ECCENTRICITY":8.38e-5,"INCLINATION":53.1583,"RA_OF_ASC_NODE":173.9076,"ARG_OF_PERICENTER":86.7489,"MEAN_ANOMALY":273.3625,"EPHEMERIS_TYPE":0,"CLASSIFICATION_TYPE":"U","NORAD_CAT_ID":59760,"ELEMENT_SET_NO":999,"REV_AT_EPOCH":7213,"BSTAR":1.9303e-5,"MEAN_MOTION_DOT":1.752e-5,"MEAN_MOTION_DDOT":0},{"OBJECT_NAME":"STARLINK-11117 [DTC]","OBJECT_ID":"2024-091J","EPOCH":"2025-08-08T13:54:53.704800","MEAN_MOTION":15.69707253,"ECCENTRICITY":0.0001016,"INCLINATION":53.1589,"RA_OF_ASC_NODE":176.698,"ARG_OF_PERICENTER":105.0057,"MEAN_ANOMALY":255.1073,"EPHEMERIS_TYPE":0,"CLASSIFICATION_TYPE":"U","NORAD_CAT_ID":59761,"ELEMENT_SET_NO":999,"REV_AT_EPOCH":7204,"BSTAR":5.0137e-6,"MEAN_MOTION_DOT":1.9e-7,"MEAN_MOTION_DDOT":0},{"OBJECT_NAME":"STARLINK-11110 [DTC]","OBJECT_ID":"2024-091K","EPOCH":"2025-08-09T14:14:44.948256","MEAN_MOTION":15.6971802,"ECCENTRICITY":0.0001235,"INCLINATION":53.1597,"RA_OF_ASC_NODE":171.6432,"ARG_OF_PERICENTER":91.7965,"MEAN_ANOMALY":268.3194,"EPHEMERIS_TYPE":0,"CLASSIFICATION_TYPE":"U","NORAD_CAT_ID":59762,"ELEMENT_SET_NO":999,"REV_AT_EPOCH":7221,"BSTAR":1.0586e-5,"MEAN_MOTION_DOT":6.94e-6,"MEAN_MOTION_DDOT":0},{"OBJECT_NAME":"STARLINK-11104 [DTC]","OBJECT_ID":"2024-091L","EPOCH":"2025-08-09T14:07:41.003328","MEAN_MOTION":15.6972342,"ECCENTRICITY":0.0001215,"INCLINATION":53.16,"RA_OF_ASC_NODE":171.6109,"ARG_OF_PERICENTER":84.7922,"MEAN_ANOMALY":275.3235,"EPHEMERIS_TYPE":0,"CLASSIFICATION_TYPE":"U","NORAD_CAT_ID":59763,"ELEMENT_SET_NO":999,"REV_AT_EPOCH":7221,"BSTAR":2.7718e-5,"MEAN_MOTION_DOT":2.772e-5,"MEAN_MOTION_DDOT":0},{"OBJECT_NAME":"STARLINK-11111 [DTC]","OBJECT_ID":"2024-091M","EPOCH":"2025-08-09T13:53:32.158752","MEAN_MOTION":15.69749762,"ECCENTRICITY":0.0001163,"INCLINATION":53.1609,"RA_OF_ASC_NODE":171.5461,"ARG_OF_PERICENTER":95.1887,"MEAN_ANOMALY":264.9263,"EPHEMERIS_TYPE":0,"CLASSIFICATION_TYPE":"U","NORAD_CAT_ID":59764,"ELEMENT_SET_NO":999,"REV_AT_EPOCH":7222,"BSTAR":-7.0304e-6,"MEAN_MOTION_DOT":-1.442e-5,"MEAN_MOTION_DDOT":0},{"OBJECT_NAME":"STARLINK-11106 [DTC]","OBJECT_ID":"2024-091N","EPOCH":"2025-08-09T14:00:37.122336","MEAN_MOTION":15.69722144,"ECCENTRICITY":0.0001217,"INCLINATION":53.16,"RA_OF_ASC_NODE":171.5786,"ARG_OF_PERICENTER":90.6145,"MEAN_ANOMALY":269.5012,"EPHEMERIS_TYPE":0,"CLASSIFICATION_TYPE":"U","NORAD_CAT_ID":59765,"ELEMENT_SET_NO":999,"REV_AT_EPOCH":7220,"BSTAR":1.9094e-5,"MEAN_MOTION_DOT":1.726e-5,"MEAN_MOTION_DDOT":0},{"OBJECT_NAME":"STARLINK-31739","OBJECT_ID":"2024-091P","EPOCH":"2025-08-09T11:14:01.023360","MEAN_MOTION":15.30198777,"ECCENTRICITY":0.0001153,"INCLINATION":53.1607,"RA_OF_ASC_NODE":289.7088,"ARG_OF_PERICENTER":76.4482,"MEAN_ANOMALY":283.6647,"EPHEMERIS_TYPE":0,"CLASSIFICATION_TYPE":"U","NORAD_CAT_ID":59766,"ELEMENT_SET_NO":999,"REV_AT_EPOCH":7055,"BSTAR":4.4141e-5,"MEAN_MOTION_DOT":9.48e-6,"MEAN_MOTION_DDOT":0},{"OBJECT_NAME":"STARLINK-31828","OBJECT_ID":"2024-091Q","EPOCH":"2025-08-09T11:36:13.119552","MEAN_MOTION":15.30193328,"ECCENTRICITY":0.000301,"INCLINATION":53.1605,"RA_OF_ASC_NODE":292.6347,"ARG_OF_PERICENTER":93.4036,"MEAN_ANOMALY":266.7309,"EPHEMERIS_TYPE":0,"CLASSIFICATION_TYPE":"U","NORAD_CAT_ID":59767,"ELEMENT_SET_NO":999,"REV_AT_EPOCH":7027,"BSTAR":2.6606e-5,"MEAN_MOTION_DOT":4.28e-6,"MEAN_MOTION_DDOT":0},{"OBJECT_NAME":"STARLINK-31826","OBJECT_ID":"2024-091R","EPOCH":"2025-08-09T11:40:47.166528","MEAN_MOTION":15.30189756,"ECCENTRICITY":0.0001142,"INCLINATION":53.1614,"RA_OF_ASC_NODE":292.6582,"ARG_OF_PERICENTER":71.95,"MEAN_ANOMALY":288.1626,"EPHEMERIS_TYPE":0,"CLASSIFICATION_TYPE":"U","NORAD_CAT_ID":59768,"ELEMENT_SET_NO":999,"REV_AT_EPOCH":7051,"BSTAR":-2.0602e-5,"MEAN_MOTION_DOT":-9.69e-6,"MEAN_MOTION_DDOT":0},{"OBJECT_NAME":"STARLINK-31830","OBJECT_ID":"2024-091S","EPOCH":"2025-08-09T11:45:20.142144","MEAN_MOTION":15.30194203,"ECCENTRICITY":0.0001081,"INCLINATION":53.1594,"RA_OF_ASC_NODE":292.6772,"ARG_OF_PERICENTER":90.8707,"MEAN_ANOMALY":269.2417,"EPHEMERIS_TYPE":0,"CLASSIFICATION_TYPE":"U","NORAD_CAT_ID":59769,"ELEMENT_SET_NO":999,"REV_AT_EPOCH":7051,"BSTAR":1.7973e-5,"MEAN_MOTION_DOT":1.73e-6,"MEAN_MOTION_DDOT":0},{"OBJECT_NAME":"STARLINK-31829","OBJECT_ID":"2024-091T","EPOCH":"2025-08-09T11:31:39.294624","MEAN_MOTION":15.30198172,"ECCENTRICITY":8.97e-5,"INCLINATION":53.1597,"RA_OF_ASC_NODE":292.6205,"ARG_OF_PERICENTER":93.1396,"MEAN_ANOMALY":266.9708,"EPHEMERIS_TYPE":0,"CLASSIFICATION_TYPE":"U","NORAD_CAT_ID":59770,"ELEMENT_SET_NO":999,"REV_AT_EPOCH":7051,"BSTAR":5.904e-5,"MEAN_MOTION_DOT":1.39e-5,"MEAN_MOTION_DDOT":0},{"OBJECT_NAME":"STARLINK-31786","OBJECT_ID":"2024-091U","EPOCH":"2025-08-09T11:51:25.823232","MEAN_MOTION":15.3018086,"ECCENTRICITY":9.94e-5,"INCLINATION":53.1605,"RA_OF_ASC_NODE":292.7026,"ARG_OF_PERICENTER":67.0812,"MEAN_ANOMALY":293.0294,"EPHEMERIS_TYPE":0,"CLASSIFICATION_TYPE":"U","NORAD_CAT_ID":59771,"ELEMENT_SET_NO":999,"REV_AT_EPOCH":7051,"BSTAR":-6.0949e-5,"MEAN_MOTION_DOT":-2.162e-5,"MEAN_MOTION_DDOT":0},{"OBJECT_NAME":"STARLINK-31835","OBJECT_ID":"2024-091V","EPOCH":"2025-08-09T11:27:05.378976","MEAN_MOTION":15.30202856,"ECCENTRICITY":0.0001048,"INCLINATION":53.1604,"RA_OF_ASC_NODE":292.5915,"ARG_OF_PERICENTER":94.7779,"MEAN_ANOMALY":265.3341,"EPHEMERIS_TYPE":0,"CLASSIFICATION_TYPE":"U","NORAD_CAT_ID":59772,"ELEMENT_SET_NO":999,"REV_AT_EPOCH":7051,"BSTAR":4.8595e-5,"MEAN_MOTION_DOT":1.081e-5,"MEAN_MOTION_DDOT":0},{"OBJECT_NAME":"STARLINK-31363","OBJECT_ID":"2024-093A","EPOCH":"2025-08-09T14:05:26.043936","MEAN_MOTION":15.27607215,"ECCENTRICITY":8.76e-5,"INCLINATION":43.0052,"RA_OF_ASC_NODE":323.5349,"ARG_OF_PERICENTER":275.3791,"MEAN_ANOMALY":84.6961,"EPHEMERIS_TYPE":0,"CLASSIFICATION_TYPE":"U","NORAD_CAT_ID":59782,"ELEMENT_SET_NO":999,"REV_AT_EPOCH":7029,"BSTAR":0.00014813,"MEAN_MOTION_DOT":3.82e-5,"MEAN_MOTION_DDOT":0}]
