STARLINK-11105 [DTC]    
1 59758U 24091F   25221.29484916  .00001867  00000+0  20251-4 0  9990
2 59758  53.1592 173.3628 0000916  70.9869 289.1248 15.69728706 72156
STARLINK-11097 [DTC]    
1 59759U 24091G   25221.28994390  .00001278  00000+0  15398-4 0  9994
2 59759  53.1588 173.3122 0001046  82.5686 277.5451 15.69728167 72150
STARLINK-11098 [DTC]    
1 59760U 24091H   25221.15770160  .00001752  00000+0  19303-4 0  9996
2 59760  53.1583 173.9076 0000838  86.7489 273.3625 15.69726311 72130
STARLINK-11117 [DTC]    
1 59761U 24091J   25220.57978825  .00000019  00000+0  50137-5 0  9996
2 59761  53.1589 176.6980 0001016 105.0057 255.1073 15.69707253 72045
STARLINK-11110 [DTC]    
1 59762U 24091K   25221.59357579  .00000694  00000+0  10586-4 0  9999
2 59762  53.1597 171.6432 0001235  91.7965 268.3194 15.69718020 72217
STARLINK-11104 [DTC]    
1 59763U 24091L   25221.58866902  .00002772  00000+0  27718-4 0  9998
2 59763  53.1600 171.6109 0001215  84.7922 275.3235 15.69723420 72211
STARLINK-11111 [DTC]    
1 59764U 24091M   25221.57884443 -.00001442  00000+0 -70304-5 0  9993
2 59764  53.1609 171.5461 0001163  95.1887 264.9263 15.69749762 72222
STARLINK-11106 [DTC]    
1 59765U 24091N   25221.58376299  .00001726  00000+0  19094-4 0  9991
2 59765  53.1600 171.5786 0001217  90.6145 269.5012 15.69722144 72207
STARLINK-31739          
1 59766U 24091P   25221.46806740  .00000948  00000+0  44141-4 0  9994
2 59766  53.1607 289.7088 0001153  76.4482 283.6647 15.30198777 70551
STARLINK-31828          
1 59767U 24091Q   25221.48348518  .00000428  00000+0  26606-4 0  9990
2 59767  53.1605 292.6347 0003010  93.4036 266.7309 15.30193328 70272
STARLINK-31826          
1 59768U 24091R   25221.48665702 -.00000969  00000+0 -20602-4 0  9990
2 59768  53.1614 292.6582 0001142  71.9500 288.1626 15.30189756 70512
STARLINK-31830          
1 59769U 24091S   25221.48981646  .00000173  00000+0  17973-4 0  9991
2 59769  53.1594 292.6772 0001081  90.8707 269.2417 15.30194203 70513
STARLINK-31829          
1 59770U 24091T   25221.48031591  .00001390  00000+0  59040-4 0  9991
2 59770  53.1597 292.6205 0000897  93.1396 266.9708 15.30198172 70519
STARLINK-31786          
1 59771U 24091U   25221.49404888 -.00002162  00000+0 -60949-4 0  9996
2 59771  53.1605 292.7026 0000994  67.0812 293.0294 15.30180860 70519
STARLINK-31835          
1 59772U 24091V   25221.47714559  .00001081  00000+0  48595-4 0  9994
2 59772  53.1604 292.5915 0001048  94.7779 265.3341 15.30202856 70519
STARLINK-31363          
1 59782U 24093A   25221.58710699  .00003820  00000+0  14813-3 0  9998
2 59782  43.0052 323.5349 0000876 275.3791  84.6961 15.27607215 70299
